AMC-3                   
1 24936U 97050A   26060.39916328 -.00000277  00000+0  00000+0 0  9995
2 24936   7.8820  65.3079 0003429 281.2049 244.3646  1.00270435 51350
NSS-11                  
1 26554U 00059A   26060.48497536  .00000007  00000+0  00000+0 0  9991
2 26554   1.8488  82.7063 0003140 255.2230 171.9304  1.00273128 40212
AMC-6                   
1 26580U 00067A   26060.52045348  .00000070  00000+0  00000+0 0  9994
2 26580   0.0543 305.7093 0003183  28.0788 237.8177  1.00270519 92810
AMC-11                  
1 28252U 04017A   26060.42513280 -.00000068  00000+0  00000+0 0  9993
2 28252   0.0333  78.0109 0003222 263.0501 220.0877  1.00271529 79785
AMC-15                  
1 28446U 04041A   26060.51138968 -.00000107  00000+0  00000+0 0  9995
2 28446   0.0606 290.8865 0002423  52.5181 254.9389  1.00272473 78224
NSS-10                  
1 28526U 05003A   26060.43969286 -.00000268  00000+0  00000+0 0  9997
2 28526   6.1801  71.7567 0003240 268.8617 299.4452  1.00271824 52075
ASTRA 1KR               
1 29055U 06012A   26060.30830560  .00000100  00000+0  00000+0 0  9998
2 29055   0.1954  81.7247 0003553 238.7358 328.6244  1.00270610 44614
ASTRA 1L                
1 31306U 07016A   26060.43794685 -.00000202  00000+0  00000+0 0  9990
2 31306   1.0430  82.4454 0003268 268.0896 301.8998  1.00271452 43904
ASTRA 4A                
1 32299U 07057A   26060.36850338  .00000014  00000+0  00000+0 0  9997
2 32299   0.0590 288.3440 0002477  51.0113 317.2588  1.00272571 50566
ASTRA 1M                
1 33436U 08057A   26060.30830560  .00000101  00000+0  00000+0 0  9998
2 33436   0.0281  54.3169 0000388  15.1292 219.8174  1.00272248 44656
NSS-9                   
1 33749U 09008A   26060.48220764  .00000053  00000+0  00000+0 0  9996
2 33749   0.9830  83.7333 0002241 246.0552 186.1284  1.00271750 62447
SES-7 (PROTOSTAR 2)     
1 34941U 09027A   26060.39731267  .00000000  00000+0  00000+0 0  9999
2 34941   0.0221 125.4502 0001695 175.0746 109.9776  1.00269858 61542
NSS-12                  
1 36032U 09058A   26060.49970376  .00000054  00000+0  00000+0 0  9992
2 36032   0.0107 287.7216 0005141  36.3328  72.1098  1.00271216 59835
SES-1                   
1 36516U 10016A   26060.42712615 -.00000133  00000+0  00000+0 0  9997
2 36516   0.0584 287.9010 0002629  39.6832 244.3840  1.00272324 57959
ASTRA 3B                
1 36581U 10021A   26060.30917227  .00000119  00000+0  00000+0 0  9991
2 36581   1.1893  84.9852 0002982 275.8627 293.0518  1.00270287 57783
SES-3                   
1 37748U 11035A   26060.39827120 -.00000120  00000+0  00000+0 0  9997
2 37748   1.0479  84.3404 0003560 258.5812 216.6284  1.00272073 53515
ASTRA 1N                
1 37775U 11041A   26060.30830560  .00000101  00000+0  00000+0 0  9995
2 37775   0.0658  13.2153 0003945   1.7176 274.3343  1.00272229 43444
SES-2                   
1 37809U 11049A   26060.35857250 -.00000214  00000+0  00000+0 0  9997
2 37809   0.0282  75.5950 0002939 262.5102 223.1028  1.00270288 52882
QUETZSAT 1              
1 37826U 11054A   26060.43189284 -.00000260  00000+0  00000+0 0  9997
2 37826   0.0592 286.0184 0002690  64.4256 247.2487  1.00271826 48796
SES-4                   
1 38087U 12007A   26060.43794685 -.00000186  00000+0  00000+0 0  9990
2 38087   0.0332  62.4527 0002405 292.6509 299.7872  1.00274766 51144
SES-5                   
1 38652U 12036A   26060.36850338  .00000015  00000+0  00000+0 0  9990
2 38652   0.0618 308.4666 0001960  20.5838 327.7350  1.00271819 43379
ASTRA 2F                
1 38778U 12051A   26060.35183495  .00000131  00000+0  00000+0 0  9997
2 38778   0.0801 260.0199 0002880  12.8005  41.1476  1.00272438 40054
SES-6                   
1 39172U 13026A   26060.43908620 -.00000280  00000+0  00000+0 0  9999
2 39172   0.0524 302.9971 0002175  41.5789 292.1948  1.00270549 46648
O3B FM5                 
1 39188U 13031A   26060.29913955 -.00000029  00000+0  00000+0 0  9994
2 39188   0.0971  14.9044 0003347 316.4761  28.5937  5.00116420231644
O3B FM4                 
1 39189U 13031B   26060.21839323 -.00000029  00000+0  00000+0 0  9993
2 39189   0.0557 345.2169 0005058   3.7212  11.0432  5.00115181231641
O3B FM2                 
1 39190U 13031C   26059.88430258 -.00000028  00000+0  00000+0 0  9999
2 39190   0.0569 339.1682 0002833 358.1956  22.6162  5.00115940231694
O3B PFM                 
1 39191U 13031D   26060.29819406 -.00000029  00000+0  00000+0 0  9994
2 39191   0.0662   7.9306 0005123 347.3173   4.7397  5.00116035231279
ASTRA 2E                
1 39285U 13056A   26060.35183495  .00000132  00000+0  00000+0 0  9998
2 39285   0.0654  24.3207 0002202 308.0646 341.8887  1.00270578 45339
SES-8                   
1 39460U 13071A   26060.51213044 -.00000287  00000+0  00000+0 0  9994
2 39460   0.0442 274.4791 0001577  84.8113  79.3687  1.00271196 43355
ASTRA 5B                
1 39617U 14011B   26060.30917227  .00000118  00000+0  00000+0 0  9996
2 39617   0.0977 295.8096 0004293  24.8388 333.2452  1.00269145 43581
O3B FM3                 
1 40079U 14038A   26060.36481620 -.00000029  00000+0  00000+0 0  9990
2 40079   0.0531 353.4537 0000415  40.0543 326.4870  5.00115540207647
O3B FM7                 
1 40080U 14038B   26057.51243395 -.00000024  00000+0  00000+0 0  9995
2 40080   0.0590 349.0933 0004497 336.9388  33.9327  5.00115593212341
